JILIN-1 GAOFEN 03D51    
1 54252U 22155B   26186.34365103  .00058938  00000+0  62233-3 0  9992
2 54252  97.6252 332.5722 0003841 269.0721  91.0097 15.64025869202587
JILIN-1 GAOFEN 03D53    
1 54253U 22155C   26186.32137678  .00038449  00000+0  59569-3 0  9998
2 54253  97.6242 327.9138 0004503 294.5425  65.5358 15.53929517202303
JILIN-1 GAOFEN 03D54    
1 54254U 22155D   26185.20568878  .02649382  25932-5  96265-3 0  9992
2 54254  97.6175 340.8749 0012818 269.0365  90.9457 16.24574902203035
JILIN-1 GAOFEN 03D52    
1 54255U 22155E   26186.31446799  .00054436  00000+0  63908-3 0  9992
2 54255  97.6225 330.7992 0003265 289.4174  70.6730 15.61311093202533
JILIN-1 GAOFEN 03D50    
1 54690U 22167J   26186.31980050  .00014218  00000+0  42196-3 0  9991
2 54690  97.6851 354.9091 0006019  52.7365 307.4425 15.34908415198134
JILIN-1 GAOFEN 03D47    
1 54692U 22167L   26186.31910201  .00013900  00000+0  42171-3 0  9994
2 54692  97.6949 356.6444 0008502  60.6918 299.5173 15.34197563198120
JILIN-1 GAOFEN 03D49    
1 54694U 22167N   26186.29330340  .00015831  00000+0  42704-3 0  9990
2 54694  97.6826 357.2334 0006594  78.2749 281.9235 15.37865231198274
JILIN-1 GAOFEN 03D48    
1 54695U 22167P   26186.31702674  .00014823  00000+0  42964-3 0  9995
2 54695  97.6898 356.6094 0007176  60.9554 299.2407 15.35635373198171
JILIN GAOFEN OBJECT A   
1 68691U 26080A   26185.06116481  .00006260  00000+0  39809-3 0  9990
2 68691  97.6614 260.5556 0012282  15.1953 344.9642 15.09112385 12205
JILIN GAOFEN OBJECT B   
1 68692U 26080B   26185.90449776  .00009242  00000+0  58618-3 0  9992
2 68692  97.6582 261.4160 0015688 349.8167  10.2742 15.09033071 12330
JILIN GAOFEN OBJECT C   
1 68693U 26080C   26185.59020844  .00008525  00000+0  54046-3 0  9993
2 68693  97.6596 261.0703 0012841 354.1079   5.9996 15.09108820 12285
JILIN GAOFEN OBJECT D   
1 68694U 26080D   26186.30226332  .00007987  00000+0  50886-3 0  9993
2 68694  97.6647 261.8806 0017347   0.1192   0.0037 15.08894691 12374
JILIN GAOFEN OBJECT E   
1 68695U 26080E   26186.28583146  .00008296  00000+0  52485-3 0  9991
2 68695  97.6634 261.8828 0013378  11.9812 348.1733 15.09190254 12356
JILIN GAOFEN OBJECT F   
1 68696U 26080F   26186.28461741  .00008317  00000+0  52648-3 0  9993
2 68696  97.6605 261.8543 0014486  17.5776 342.5951 15.09154592 12356
JILIN GAOFEN OBJECT G   
1 68697U 26080G   26186.33693207  .00007796  00000+0  49401-3 0  9997
2 68697  97.6652 261.9853 0014382  11.6218 348.5339 15.09140755 12368
JILIN GAOFEN OBJECT H   
1 68698U 26080H   26182.82007068  .00007709  00000+0  48996-3 0  9994
2 68698  97.6647 258.4665 0015405  23.9908 336.2035 15.09020248 11836
